NORAD_CAT_ID,OBJECT_NAME,OBJECT_TYPE,EPOCH,MEAN_MOTION,ECCENTRICITY,INCLINATION,RA_OF_ASC_NODE,ARG_OF_PERICENTER,MEAN_ANOMALY,BSTAR,MEAN_MOTION_DOT,MEAN_MOTION_DDOT,TLE_LINE0,TLE_LINE1,TLE_LINE2,SEMIMAJOR_AXIS,PERIOD,APOGEE,PERIGEE,DECAYED
50845.0,STARLINK-3230,PAYLOAD,2023-05-31 23:09:11,15.08836583,0.000119,53.2183,45.4182,94.0487,266.0641,0.00010383,1.365e-05,0.0,0 STARLINK-3230,1 50845U 22001AU  23151.96471359  .00001365  00000-0  10383-3 0  9996,2 50845  53.2183  45.4182 0001190  94.0487 266.0641 15.08836583 77380,6917.891,95.438,540.579,538.933,0.0
50845.0,STARLINK-3230,PAYLOAD,2023-06-01 02:19:56,15.08845891,0.0001306,53.2181,44.8236,93.5054,266.6088,0.00017816,2.549e-05,0.0,0 STARLINK-3230,1 50845U 22001AU  23152.09718627  .00002549  00000-0  17816-3 0  9996,2 50845  53.2181  44.8236 0001306  93.5054 266.6088 15.08845891 78636,6917.862,95.437,540.631,538.824,0.0
50845.0,STARLINK-3230,PAYLOAD,2023-06-01 21:24:34,15.08845002,0.0001367,53.2184,41.2538,99.4671,260.6476,-3.2027e-05,-7.98e-06,0.0,0 STARLINK-3230,1 50845U 22001AU  23152.89207115 -.00000798  00000-0 -32027-4 0  9997,2 50845  53.2184  41.2538 0001367  99.4671 260.6476 15.08845002 78754,6917.865,95.437,540.676,538.784,0.0
50845.0,STARLINK-3230,PAYLOAD,2023-06-01 22:59:57,15.08847121,0.0001261,53.2188,40.9568,101.9706,258.1428,-1.9728e-05,-6.02e-06,0.0,0 STARLINK-3230,1 50845U 22001AU  23152.95830848 -.00000602  00000-0 -19728-4 0  9996,2 50845  53.2188  40.9568 0001261 101.9706 258.1428 15.08847121 77536,6917.859,95.437,540.596,538.851,0.0
50845.0,STARLINK-3230,PAYLOAD,2023-06-02 02:10:43,15.08850912,0.0001357,53.2186,40.3619,102.6193,257.4951,1.2889e-05,-8.3e-07,0.0,0 STARLINK-3230,1 50845U 22001AU  23153.09078438 -.00000083  00000-0  12889-4 0  9994,2 50845  53.2186  40.3619 0001357 102.6193 257.4951 15.08850912 78782,6917.847,95.437,540.651,538.773,0.0
50845.0,STARLINK-3230,PAYLOAD,2023-06-02 21:15:22,15.088361,0.0001621,53.2188,36.7906,108.7178,251.399,-6.9849e-05,-1.399e-05,0.0,0 STARLINK-3230,1 50845U 22001AU  23153.88567815 -.00001399  00000-0 -69849-4 0  9993,2 50845  53.2188  36.7906 0001621 108.7178 251.3990 15.08836100 77672,6917.892,95.438,540.879,538.636,0.0
50845.0,STARLINK-3230,PAYLOAD,2023-06-02 22:50:45,15.08836475,0.0001428,53.2185,36.4965,93.6036,266.5119,-4.9396e-05,-1.074e-05,0.0,0 STARLINK-3230,1 50845U 22001AU  23153.95191814 -.00001074  00000-0 -49396-4 0  9998,2 50845  53.2185  36.4965 0001428  93.6036 266.5119 15.08836475 78915,6917.891,95.438,540.744,538.768,0.0
50845.0,STARLINK-3230,PAYLOAD,2023-06-03 22:41:32,15.08846303,0.0001341,53.2179,32.0381,91.8806,268.234,7.2936e-05,8.73e-06,0.0,0 STARLINK-3230,1 50845U 22001AU  23154.94551132  .00000873  00000-0  72936-4 0  9991,2 50845  53.2179  32.0381 0001341  91.8806 268.2340 15.08846303 77837,6917.861,95.437,540.654,538.798,0.0
50845.0,STARLINK-3230,PAYLOAD,2023-06-04 01:52:18,15.08847359,0.0001335,53.218,31.4431,92.1228,267.9917,9.3692e-05,1.204e-05,0.0,0 STARLINK-3230,1 50845U 22001AU  23155.07799001  .00001204  00000-0  93692-4 0  9996,2 50845  53.2180  31.4431 0001335  92.1228 267.9917 15.08847359 79080,6917.858,95.437,540.646,538.799,0.0
50845.0,STARLINK-3230,PAYLOAD,2023-06-04 19:21:33,15.08832078,0.0001339,53.2176,28.1721,89.1087,271.0059,0.00016685,2.368e-05,0.0,0 STARLINK-3230,1 50845U 22001AU  23155.80663942  .00002368  00000-0  16685-3 0  9999,2 50845  53.2176  28.1721 0001339  89.1087 271.0059 15.08832078 79190,6917.905,95.438,540.696,538.843,0.0
50845.0,STARLINK-3230,PAYLOAD,2023-06-04 22:32:19,15.08842445,0.0001292,53.2173,27.5788,87.0048,273.1092,0.00010878,1.444e-05,0.0,0 STARLINK-3230,1 50845U 22001AU  23155.93911550  .00001444  00000-0  10878-3 0  9996,2 50845  53.2173  27.5788 0001292  87.0048 273.1092 15.08842445 77989,6917.873,95.437,540.632,538.844,0.0
50845.0,STARLINK-3230,PAYLOAD,2023-06-05 14:26:11,15.0884184,0.0001278,53.2172,24.6058,97.2855,262.8282,3.7528e-05,3.09e-06,0.0,0 STARLINK-3230,1 50845U 22001AU  23156.60151795  .00000309  00000-0  37528-4 0  9999,2 50845  53.2172  24.6058 0001278  97.2855 262.8282 15.08841840 78085,6917.875,95.437,540.624,538.856,0.0
50845.0,STARLINK-3230,PAYLOAD,2023-06-05 20:47:44,15.08837799,0.0001252,53.2177,23.4155,93.7514,266.3622,-3.6009e-06,-3.45e-06,0.0,0 STARLINK-3230,1 50845U 22001AU  23156.86648201 -.00000345  00000-0 -36009-5 0  9996,2 50845  53.2177  23.4155 0001252  93.7514 266.3622 15.08837799 78120,6917.887,95.438,540.618,538.886,0.0
50845.0,STARLINK-3230,PAYLOAD,2023-06-06 01:33:53,15.08842787,0.0001239,53.2177,22.5227,91.7421,268.3713,3.8354e-05,3.23e-06,0.0,0 STARLINK-3230,1 50845U 22001AU  23157.06519767  .00000323  00000-0  38354-4 0  9991,2 50845  53.2177  22.5227 0001239  91.7421 268.3713 15.08842787 79385,6917.872,95.437,540.594,538.88,0.0
50845.0,STARLINK-3230,PAYLOAD,2023-06-06 19:03:07,15.08838619,0.0001166,53.2178,19.251,98.507,261.6055,7.465e-06,-1.69e-06,0.0,0 STARLINK-3230,1 50845U 22001AU  23157.79384214 -.00000169  00000-0  74650-5 0  9997,2 50845  53.2178  19.2510 0001166  98.5070 261.6055 15.08838619 78268,6917.885,95.438,540.556,538.943,0.0
50845.0,STARLINK-3230,PAYLOAD,2023-06-07 14:07:45,15.088376,0.0001298,53.2174,15.6827,83.9058,276.2082,6.8331e-05,8e-06,0.0,0 STARLINK-3230,1 50845U 22001AU  23158.58872301  .00000800  00000-0  68331-4 0  9993,2 50845  53.2174  15.6827 0001298  83.9058 276.2082 15.08837600 78389,6917.888,95.438,540.651,538.855,0.0
50845.0,STARLINK-3230,PAYLOAD,2023-06-07 20:29:18,15.08838691,0.0001303,53.2184,14.4937,87.4953,272.6188,7.0154e-05,8.29e-06,0.0,0 STARLINK-3230,1 50845U 22001AU  23158.85368288  .00000829  00000-0  70154-4 0  9994,2 50845  53.2184  14.4937 0001303  87.4953 272.6188 15.08838691 78422,6917.884,95.438,540.651,538.848,0.0
50845.0,STARLINK-3230,PAYLOAD,2023-06-08 13:58:32,15.08836483,0.0001437,53.2186,11.2242,88.4942,271.6215,0.00010428,1.372e-05,0.0,0 STARLINK-3230,1 50845U 22001AU  23159.58232524  .00001372  00000-0  10428-3 0  9999,2 50845  53.2186  11.2242 0001437  88.4942 271.6215 15.08836483 78534,6917.891,95.438,540.75,538.762,0.0
50845.0,STARLINK-3230,PAYLOAD,2023-06-08 23:30:51,15.08853679,0.0001392,53.2184,9.4386,94.409,265.7061,-3.6729e-05,-8.73e-06,0.0,0 STARLINK-3230,1 50845U 22001AU  23159.97975765 -.00000873  00000-0 -36729-4 0  9993,2 50845  53.2184   9.4386 0001392  94.4090 265.7061 15.08853679 79823,6917.839,95.437,540.667,538.741,0.0
50845.0,STARLINK-3230,PAYLOAD,2023-06-09 07:27:47,15.08837038,0.0001261,53.2178,7.9508,97.5687,262.5448,7.3112e-05,8.76e-06,0.0,0 STARLINK-3230,1 50845U 22001AU  23160.31096541  .00000876  00000-0  73112-4 0  9997,2 50845  53.2178   7.9508 0001261  97.5687 262.5448 15.08837038 79876,6917.889,95.438,540.627,538.882,0.0
50845.0,STARLINK-3230,PAYLOAD,2023-06-09 20:10:52,15.08844869,0.000113,53.2175,5.5717,91.2519,268.8603,9.6451e-05,1.248e-05,0.0,0 STARLINK-3230,1 50845U 22001AU  23160.84087991  .00001248  00000-0  96451-4 0  9999,2 50845  53.2175   5.5717 0001130  91.2519 268.8603 15.08844869 78724,6917.866,95.437,540.512,538.949,0.0
50845.0,STARLINK-3230,PAYLOAD,2023-06-09 23:21:38,15.08846722,0.0001136,53.2175,4.9771,91.1497,268.9625,0.0001083,1.436e-05,0.0,0 STARLINK-3230,1 50845U 22001AU  23160.97335815  .00001436  00000-0  10830-3 0  9999,2 50845  53.2175   4.9771 0001136  91.1497 268.9625 15.08846722 79970,6917.86,95.437,540.511,538.939,0.0
50845.0,STARLINK-3230,PAYLOAD,2023-06-10 13:40:06,15.0884225,0.0001046,53.2178,2.3019,86.503,273.6081,6.9218e-05,8.14e-06,0.0,0 STARLINK-3230,1 50845U 22001AU  23161.56952221  .00000814  00000-0  69218-4 0  9995,2 50845  53.2178   2.3019 0001046  86.5030 273.6081 15.08842250 78836,6917.874,95.437,540.462,539.015,0.0
50845.0,STARLINK-3230,PAYLOAD,2023-06-10 20:01:38,15.08846381,0.0001112,53.2181,1.1118,95.1657,264.9462,8.5649e-05,1.076e-05,0.0,0 STARLINK-3230,1 50845U 22001AU  23161.83447855  .00001076  00000-0  85649-4 0  9994,2 50845  53.2181   1.1118 0001112  95.1657 264.9462 15.08846381 78871,6917.861,95.437,540.495,538.957,0.0
50845.0,STARLINK-3230,PAYLOAD,2023-06-11 11:55:30,15.0883758,0.0001022,53.218,358.1393,88.7964,271.3145,5.9383e-05,6.57e-06,0.0,0 STARLINK-3230,1 50845U 22001AU  23162.49688511  .00000657  00000-0  59383-4 0  9993,2 50845  53.2180 358.1393 0001022  88.7964 271.3145 15.08837580 80200,6917.888,95.438,540.46,539.046,0.0
50845.0,STARLINK-3230,PAYLOAD,2023-06-11 19:52:26,15.08842249,9.88e-05,53.218,356.6524,88.1911,271.9194,8.0179e-05,9.89e-06,0.0,0 STARLINK-3230,1 50845U 22001AU  23162.82808176  .00000989  00000-0  80179-4 0  9996,2 50845  53.2180 356.6524 0000988  88.1911 271.9194 15.08842249 79021,6917.874,95.437,540.422,539.055,0.0
50845.0,STARLINK-3230,PAYLOAD,2023-06-11 23:03:12,15.08847038,0.0001006,53.2179,356.0573,87.1326,272.9781,6.5224e-05,7.51e-06,0.0,0 STARLINK-3230,1 50845U 22001AU  23162.96055880  .00000751  00000-0  65224-4 0  9998,2 50845  53.2179 356.0573 0001006  87.1326 272.9781 15.08847038 80271,6917.859,95.437,540.42,539.028,0.0
50845.0,STARLINK-3230,PAYLOAD,2023-06-12 05:24:44,15.08846654,9.79e-05,53.2178,354.8676,84.532,275.5784,3.4643e-05,2.64e-06,0.0,0 STARLINK-3230,1 50845U 22001AU  23163.22551891  .00000264  00000-0  34643-4 0  9991,2 50845  53.2178 354.8676 0000979  84.5320 275.5784 15.08846654 79085,6917.86,95.437,540.402,539.048,0.0
50845.0,STARLINK-3230,PAYLOAD,2023-06-12 19:43:13,15.0883614,0.0001041,53.2181,352.1914,96.8048,263.3063,4.0317e-05,3.54e-06,0.0,0 STARLINK-3230,1 50845U 22001AU  23163.82168649  .00000354  00000-0  40317-4 0  9997,2 50845  53.2181 352.1914 0001041  96.8048 263.3063 15.08836140 80401,6917.892,95.438,540.477,539.037,0.0
50845.0,STARLINK-3230,PAYLOAD,2023-06-12 21:18:36,15.08838735,0.0001062,53.2185,351.8939,95.9336,264.1777,4.1737e-05,3.77e-06,0.0,0 STARLINK-3230,1 50845U 22001AU  23163.88792484  .00000377  00000-0  41737-4 0  9995,2 50845  53.2185 351.8939 0001062  95.9336 264.1777 15.08838735 79187,6917.884,95.438,540.484,539.015,0.0
